#aV2019  2  8  0  0  0.00000000     288 DD+AD WGS84 FIT  NGA
## 2039 432000.00000000   300.00000000 58522 0.0000000000000
+   31     1  2  3  5  6  7  8  9 10 11 12 13 14 15 16 17 18
+         19 20 21 22 23 24 25 26 27 28 29 30 31 32  0  0  0
+          0  0  0  0  0  0  0  0  0  0  0  0  0  0  0  0  0
+          0  0  0  0  0  0  0  0  0  0  0  0  0  0  0  0  0
+          0  0  0  0  0  0  0  0  0  0  0  0  0  0  0  0  0
++         2  2  2  2  2  2  2  2  2  2  2  2  2  2  2  2  2
++         2  2  2  2  2  2  2  2  2  2  2  2  2  2  0  0  0
++         0  0  0  0  0  0  0  0  0  0  0  0  0  0  0  0  0
++         0  0  0  0  0  0  0  0  0  0  0  0  0  0  0  0  0
++         0  0  0  0  0  0  0  0  0  0  0  0  0  0  0  0  0
%c cc cc ccc ccc cccc cccc cccc cccc ccccc ccccc ccccc ccccc
%c cc cc ccc ccc cccc cccc cccc cccc ccccc ccccc ccccc ccccc
%f  0.0000000  0.000000000  0.00000000000  0.000000000000000
%f  0.0000000  0.000000000  0.00000000000  0.000000000000000
%i    0    0    0    0      0      0      0      0         0
%i    0    0    0    0      0      0      0      0         0
/*      NGA, ST. LOUIS,MO.                                  
/*   EPHEMERIS COMPUTED FROM 2 DAYS OF DATA                 
/*   EPOCHA v3 SMOOTHER                                     
/*   G1762 IERS2010 SATAF SATAPC                            
*  2019  2  8  3  5  0.00000000
P  1  15211.479344   -545.324869  21625.863419   -159.286319                    
V  1   8017.020398  26609.808499  -4627.042202     -0.068290                    
P  2 -14363.905065 -20527.277406  -8488.390458   -134.142912                    
V  2  -1539.638657 -11805.448849  28918.356839     -0.099121                    
P  3  21032.602201  -9606.806700  12965.003312    181.856374                    
V  3  -9495.132683  13743.767294  25584.716289      0.019558                    
P  5 -12516.429203  -9226.131420 -21657.338072      1.041156                    
V  5  17851.447676 -20592.846708  -1353.618892      0.000976                    
P  6  -6964.883632 -25564.358792   1688.484815    280.436571                    
V  6   2941.862319   1254.708730  31962.343897     -0.080687                    
P  7   9154.937377 -15828.958918 -18849.614232     36.704406                    
V  7   8728.963265  23093.646648 -15414.830812     -0.071845                    
P  8  26010.069463   5834.009498   -682.983589   -131.933914                    
V  8  -1376.596374   2130.043921 -31816.226773     -0.013433                    
P  9  16601.692923  -9866.581309 -18286.846825    461.532805                    
V  9  22340.051765   6269.053754  16932.090645     -0.050812                    
P 10  -7809.851270  21838.885120  12817.014530    121.052833                    
V 10 -12684.070678  10445.607868 -25819.014735     -0.073359                    
P 11  20018.013019   2569.242602  16620.124889   -663.626478                    
V 11  13030.076350  18455.516844 -18206.481015      0.058269                    
P 12 -20949.762956   6669.381315  14565.595814    269.790171                    
V 12  12432.107330 -14310.657604  24277.393101     -0.031667                    
P 13 -22124.821420 -12969.924541  -7096.226685    -75.658392                    
V 13   9137.292487    663.239427 -30168.035017      0.012282                    
P 14   9763.989847  16609.307600  18664.473586    -91.799198                    
V 14 -22399.260808  -5432.034682  16650.618991      0.006835                    
P 15 -26620.580144  -2509.423023   1130.834776   -328.826280                    
V 15  -1273.464672  -3702.234480 -30717.490538      0.016932                    
P 16  12107.466950   8822.712263 -22134.682815    -17.788983                    
V 16 -20264.010132  18715.396670  -3229.447274     -0.024351                    
P 17    389.666844 -15208.071075  22191.235950      6.644186                    
V 17  26195.519423   7009.535790   4333.018298      0.054336                    
P 18  16913.759432  10254.966329  17313.525780     23.753557                    
V 18   6184.510300  22134.243598 -18500.349384      0.039109                    
P 19  -9495.234355 -16123.569923  18515.581547   -354.848598                    
V 19  23315.808296   6255.415849  17233.875216      0.040998                    
P 20 -13569.130658  22547.609896   2881.336528    521.979933                    
V 20  -5376.628674    843.373081 -30866.753980      0.004118                    
P 21  -5604.929946  19193.289073 -16733.148768   -254.306809                    
V 21 -10113.173474 -20564.774967 -19181.531875      0.071686                    
P 22  19419.955586  -2523.361709  18154.723343   -640.511274                    
V 22 -12577.252370  19028.464059  16360.947489     -0.082242                    
P 23  24511.443336  -2543.491306 -10113.006070   -197.967567                    
V 23  12389.441400   5292.853778  27431.576572      0.012673                    
P 24 -17002.606442  -3802.757810  19981.043994    -61.862367                    
V 24  -7888.914937 -24480.039940 -10962.708027     -0.005554                    
P 25 -19921.779902  16539.938043   5067.679465   -717.306915                    
V 25   2606.537389  -6740.644197  31292.188874     -0.054046                    
P 26   4488.474047  16649.831772 -20170.500742    118.466548                    
V 26 -17763.335491  18545.373907  11534.423996      0.104072                    
P 27  21512.798697  11902.005468 -10504.863647    -63.494702                    
V 27 -13160.300976  -1063.070688 -28110.788533     -0.071559                    
P 28  10582.610484 -21177.543827  12743.763050    764.062515                    
V 28  12166.377118  -9117.332743 -26460.125619      0.009287                    
P 29 -20307.243107   5386.087626 -16267.260198    275.483329                    
V 29 -19382.726643  -7014.803967  21905.413148     -0.086379                    
P 30   1799.524168 -24049.677815 -10913.705402    -49.022005                    
V 30   6593.520776  12708.757964 -27054.723216     -0.063405                    
P 31   7509.980428  25214.865820   -460.265958     60.188096                    
V 31  -2929.810988   1456.492474  32038.222319     -0.026047                    
P 32   3086.729254  15880.105849  21124.864615   -237.486998                    
V 32 -26272.359542  -4919.083845   7445.659256      0.183465                    
EOF
